NORAD_CAT_ID,OBJECT_NAME,OBJECT_TYPE,EPOCH,MEAN_MOTION,ECCENTRICITY,INCLINATION,RA_OF_ASC_NODE,ARG_OF_PERICENTER,MEAN_ANOMALY,BSTAR,MEAN_MOTION_DOT,MEAN_MOTION_DDOT,TLE_LINE0,TLE_LINE1,TLE_LINE2,SEMIMAJOR_AXIS,PERIOD,APOGEE,PERIGEE,DECAYED
52002.0,STARLINK-3668,PAYLOAD,2023-05-05 21:57:30,15.08828332,0.000141,53.2187,2.3715,88.274,271.8413,7.2804e-05,8.71e-06,0.0,0 STARLINK-3668,1 52002U 22025AY  23125.91493263  .00000871  00000-0  72804-4 0  9991,2 52002  53.2187   2.3715 0001410  88.2740 271.8413 15.08828332 64107,6917.916,95.438,540.756,538.806,0.0
52002.0,STARLINK-3668,PAYLOAD,2023-05-05 23:32:52,15.08835763,0.0001253,53.2179,2.0731,81.7635,278.35,9.5836e-05,1.238e-05,0.0,0 STARLINK-3668,1 52002U 22025AY  23125.98116790  .00001238  00000-0  95836-4 0  9993,2 52002  53.2179   2.0731 0001253  81.7635 278.3500 15.08835763 65622,6917.893,95.438,540.625,538.892,0.0
52002.0,STARLINK-3668,PAYLOAD,2023-05-06 01:08:16,15.08837945,0.0001319,53.2179,1.7755,84.6165,275.4977,0.00011816,1.593e-05,0.0,0 STARLINK-3668,1 52002U 22025AY  23126.04740774  .00001593  00000-0  11816-3 0  9995,2 52002  53.2179   1.7755 0001319  84.6165 275.4977 15.08837945 64121,6917.887,95.438,540.664,538.839,0.0
52002.0,STARLINK-3668,PAYLOAD,2023-05-06 21:48:15,15.08855016,0.0001195,53.2178,357.9097,80.8946,279.2182,0.00014379,2.002e-05,0.0,0 STARLINK-3668,1 52002U 22025AY  23126.90851522  .00002002  00000-0  14379-3 0  9997,2 52002  53.2178 357.9097 0001195  80.8946 279.2182 15.08855016 65762,6917.834,95.437,540.526,538.873,0.0
52002.0,STARLINK-3668,PAYLOAD,2023-05-07 00:59:02,15.08858908,0.0001225,53.2167,357.3148,80.4264,279.6866,0.00031016,4.654e-05,0.0,0 STARLINK-3668,1 52002U 22025AY  23127.04099562  .00004654  00000-0  31016-3 0  9993,2 52002  53.2167 357.3148 0001225  80.4264 279.6866 15.08858908 64275,6917.823,95.436,540.535,538.84,0.0
52002.0,STARLINK-3668,PAYLOAD,2023-05-07 18:28:17,15.08836051,0.0001109,53.2168,354.0457,83.6407,276.4711,-1.6448e-05,-5.5e-06,0.0,0 STARLINK-3668,1 52002U 22025AY  23127.76964939 -.00000550  00000-0 -16448-4 0  9997,2 52002  53.2168 354.0457 0001109  83.6407 276.4711 15.08836051 65896,6917.892,95.438,540.525,538.99,0.0
52002.0,STARLINK-3668,PAYLOAD,2023-05-07 21:39:03,15.08837026,0.0001125,53.2169,353.4503,88.0709,272.0412,1.2915e-05,-8.2e-07,0.0,0 STARLINK-3668,1 52002U 22025AY  23127.90212910 -.00000082  00000-0  12915-4 0  9992,2 52002  53.2169 353.4503 0001125  88.0709 272.0412 15.08837026 64403,6917.889,95.438,540.533,538.976,0.0
52002.0,STARLINK-3668,PAYLOAD,2023-05-08 19:54:27,15.08847544,0.0001163,53.2163,349.2874,92.9508,267.1617,0.00018186,2.608e-05,0.0,0 STARLINK-3668,1 52002U 22025AY  23128.82948550  .00002608  00000-0  18186-3 0  9990,2 52002  53.2163 349.2874 0001163  92.9508 267.1617 15.08847544 66055,6917.857,95.437,540.527,538.918,0.0
52002.0,STARLINK-3668,PAYLOAD,2023-05-08 21:29:50,15.0885166,0.0001179,53.2163,348.99,93.9285,266.1841,0.00027953,4.165e-05,0.0,0 STARLINK-3668,1 52002U 22025AY  23128.89572409  .00004165  00000-0  27953-3 0  9995,2 52002  53.2163 348.9900 0001179  93.9285 266.1841 15.08851660 64556,6917.845,95.437,540.525,538.894,0.0
52002.0,STARLINK-3668,PAYLOAD,2023-05-10 00:31:23,15.08849852,0.0001157,53.2168,343.9345,102.0362,258.076,0.00028411,4.238e-05,0.0,0 STARLINK-3668,1 52002U 22025AY  23130.02180340  .00004238  00000-0  28411-3 0  9993,2 52002  53.2168 343.9345 0001157 102.0362 258.0760 15.08849852 64722,6917.85,95.437,540.516,538.915,0.0
52002.0,STARLINK-3668,PAYLOAD,2023-05-10 21:11:24,15.08841536,0.0001263,53.2185,340.0727,110.4475,249.6653,2.9085e-05,1.75e-06,0.0,0 STARLINK-3668,1 52002U 22025AY  23130.88292549  .00000175  00000-0  29085-4 0  9997,2 52002  53.2185 340.0727 0001263 110.4475 249.6653 15.08841536 66369,6917.876,95.437,540.614,538.867,0.0
52002.0,STARLINK-3668,PAYLOAD,2023-05-11 00:22:10,15.08848197,0.000123,53.2172,339.4749,102.7502,257.3627,0.00016413,2.326e-05,0.0,0 STARLINK-3668,1 52002U 22025AY  23131.01540277  .00002326  00000-0  16413-3 0  9997,2 52002  53.2172 339.4749 0001230 102.7502 257.3627 15.08848197 66389,6917.855,95.437,540.571,538.869,0.0
52002.0,STARLINK-3668,PAYLOAD,2023-05-11 16:16:02,15.08835374,0.0001331,53.2161,336.4983,84.7848,275.3296,-6.177e-05,-1.271e-05,0.0,0 STARLINK-3668,1 52002U 22025AY  23131.67780981 -.00001271  00000-0 -61770-4 0  9994,2 52002  53.2161 336.4983 0001331  84.7848 275.3296 15.08835374 66484,6917.895,95.438,540.68,538.839,0.0
52002.0,STARLINK-3668,PAYLOAD,2023-05-11 21:02:12,15.08838917,0.0001034,53.2164,335.6074,103.3449,256.7658,3.8629e-05,3.27e-06,0.0,0 STARLINK-3668,1 52002U 22025AY  23131.87652809  .00000327  00000-0  38629-4 0  9999,2 52002  53.2164 335.6074 0001034 103.3449 256.7658 15.08838917 65002,6917.884,95.438,540.464,539.033,0.0
52002.0,STARLINK-3668,PAYLOAD,2023-05-12 17:42:13,15.08841587,0.0001024,53.2166,331.7398,109.1735,250.9368,0.00015424,2.168e-05,0.0,0 STARLINK-3668,1 52002U 22025AY  23132.73765086  .00002168  00000-0  15424-3 0  9999,2 52002  53.2166 331.7398 0001024 109.1735 250.9368 15.08841587 66643,6917.876,95.437,540.449,539.032,0.0
52002.0,STARLINK-3668,PAYLOAD,2023-05-12 20:52:59,15.08846634,9.05e-05,53.2154,331.1482,99.6891,260.4203,0.00027861,4.15e-05,0.0,0 STARLINK-3668,1 52002U 22025AY  23132.87012935  .00004150  00000-0  27861-3 0  9993,2 52002  53.2154 331.1482 0000905  99.6891 260.4203 15.08846634 65158,6917.86,95.437,540.351,539.099,0.0
52002.0,STARLINK-3668,PAYLOAD,2023-05-13 00:03:45,15.08852866,9.27e-05,53.2156,330.5527,102.6849,257.4247,0.00040319,6.137e-05,0.0,0 STARLINK-3668,1 52002U 22025AY  23133.00260694  .00006137  00000-0  40319-3 0  9996,2 52002  53.2156 330.5527 0000927 102.6849 257.4247 15.08852866 66682,6917.841,95.437,540.347,539.065,0.0
52002.0,STARLINK-3668,PAYLOAD,2023-05-13 19:08:23,15.08846391,0.0001071,53.2161,326.9849,79.7999,280.3114,0.00025477,3.77e-05,0.0,0 STARLINK-3668,1 52002U 22025AY  23133.79749156  .00003770  00000-0  25477-3 0  9995,2 52002  53.2161 326.9849 0001071  79.7999 280.3114 15.08846391 66803,6917.861,95.437,540.467,538.985,0.0
52002.0,STARLINK-3668,PAYLOAD,2023-05-14 06:16:05,15.08845151,0.0001077,53.2156,324.9033,84.8214,275.2901,0.00021545,3.143e-05,0.0,0 STARLINK-3668,1 52002U 22025AY  23134.26117143  .00003143  00000-0  21545-3 0  9999,2 52002  53.2156 324.9033 0001077  84.8214 275.2901 15.08845151 65363,6917.865,95.437,540.475,538.985,0.0
52002.0,STARLINK-3668,PAYLOAD,2023-05-14 18:59:10,15.08842045,0.000123,53.2161,322.5228,96.5459,263.5673,6.999e-05,8.26e-06,0.0,0 STARLINK-3668,1 52002U 22025AY  23134.79109223  .00000826  00000-0  69990-4 0  9999,2 52002  53.2161 322.5228 0001230  96.5459 263.5673 15.08842045 66952,6917.874,95.437,540.59,538.888,0.0
52002.0,STARLINK-3668,PAYLOAD,2023-05-15 12:28:25,15.08835325,0.0001173,53.2161,319.252,93.2192,266.8934,5.218e-05,5.43e-06,0.0,0 STARLINK-3668,1 52002U 22025AY  23135.51973747  .00000543  00000-0  52180-4 0  9999,2 52002  53.2161 319.2520 0001173  93.2192 266.8934 15.08835325 65558,6917.895,95.438,540.571,538.948,0.0
52002.0,STARLINK-3668,PAYLOAD,2023-05-15 18:49:57,15.08840194,0.000115,53.216,318.063,86.0719,274.0405,9.5797e-05,1.237e-05,0.0,0 STARLINK-3668,1 52002U 22025AY  23135.78469559  .00001237  00000-0  95797-4 0  9991,2 52002  53.2160 318.0630 0001150  86.0719 274.0405 15.08840194 65594,6917.88,95.438,540.54,538.949,0.0
52002.0,STARLINK-3668,PAYLOAD,2023-05-16 12:19:12,15.08840916,0.0001086,53.2157,314.792,81.4241,278.6874,0.00015518,2.183e-05,0.0,0 STARLINK-3668,1 52002U 22025AY  23136.51333558  .00002183  00000-0  15518-3 0  9995,2 52002  53.2157 314.7920 0001086  81.4241 278.6874 15.08840916 65707,6917.878,95.437,540.494,538.991,0.0
52002.0,STARLINK-3668,PAYLOAD,2023-05-16 21:51:30,15.08848681,0.0001037,53.2155,313.0079,78.2718,281.839,0.00018758,2.699e-05,0.0,0 STARLINK-3668,1 52002U 22025AY  23136.91077083  .00002699  00000-0  18758-3 0  9998,2 52002  53.2155 313.0079 0001037  78.2718 281.8390 15.08848681 65763,6917.854,95.437,540.436,539.001,0.0
52002.0,STARLINK-3668,PAYLOAD,2023-05-17 02:37:40,15.08833983,9.8e-05,53.2155,312.1157,93.8135,266.297,-4.1391e-05,-9.46e-06,0.0,0 STARLINK-3668,1 52002U 22025AY  23137.10949711 -.00000946  00000-0 -41391-4 0  9991,2 52002  53.2155 312.1157 0000980  93.8135 266.2970 15.08833983 67304,6917.899,95.438,540.442,539.086,0.0
52002.0,STARLINK-3668,PAYLOAD,2023-05-17 18:31:31,15.08846259,0.0001001,53.216,309.1421,80.4222,279.6883,0.00017597,2.514e-05,0.0,0 STARLINK-3668,1 52002U 22025AY  23137.77189316  .00002514  00000-0  17597-3 0  9992,2 52002  53.2160 309.1421 0001001  80.4222 279.6883 15.08846259 67406,6917.861,95.437,540.419,539.034,0.0
52002.0,STARLINK-3668,PAYLOAD,2023-05-17 21:42:17,15.08849624,9.78e-05,53.2158,308.5475,83.4794,276.6309,0.00031146,4.674e-05,0.0,0 STARLINK-3668,1 52002U 22025AY  23137.90437201  .00004674  00000-0  31146-3 0  9991,2 52002  53.2158 308.5475 0000978  83.4794 276.6309 15.08849624 65917,6917.851,95.437,540.393,539.039,0.0
52002.0,STARLINK-3668,PAYLOAD,2023-05-18 12:00:46,15.08840409,9.9e-05,53.2159,305.8711,92.192,267.9186,0.00016931,2.408e-05,0.0,0 STARLINK-3668,1 52002U 22025AY  23138.50053536  .00002408  00000-0  16931-3 0  9991,2 52002  53.2159 305.8711 0000990  92.1920 267.9186 15.08840409 67519,6917.879,95.438,540.429,539.059,0.0
52002.0,STARLINK-3668,PAYLOAD,2023-05-18 21:33:04,15.08848625,9.06e-05,53.2157,304.0869,96.7282,263.3813,0.00056632,8.739e-05,0.0,0 STARLINK-3668,1 52002U 22025AY  23138.89797376  .00008739  00000-0  56632-3 0  9995,2 52002  53.2157 304.0869 0000906  96.7282 263.3813 15.08848625 66064,6917.854,95.437,540.346,539.092,0.0
52002.0,STARLINK-3668,PAYLOAD,2023-05-19 03:54:37,15.08836616,0.0001317,53.2156,302.8975,94.0006,266.1137,6.3887e-05,7.29e-06,0.0,0 STARLINK-3668,1 52002U 22025AY  23139.16293686  .00000729  00000-0  63887-4 0  9993,2 52002  53.2156 302.8975 0001317  94.0006 266.1137 15.08836616 67618,6917.891,95.438,540.667,538.845,0.0
